QIANFAN-108             
1 66050U 25233T   25309.91477893  .00000734  00000+0  29943-3 0  9992
2 66050  88.9951  66.2689 0016483 151.4931 208.7168 14.26353866  2796
CZ-6A R/B               
1 66051U 25233U   25309.91781506  .00000422  00000+0  85206-4 0  9991
2 66051  89.0291  66.1966 0085703  52.8182 308.0813 14.57013994  2853
2025-234A               
1 66053U 25234A   25309.94382236  .00034386  00000+0  14791-2 0  9999
2 66053  97.4615  15.4744 0014561 223.2011 136.8084 15.22458556  2710
2025-234B               
1 66054U 25234B   25309.95276974  .00008350  00000+0  37643-3 0  9996
2 66054  97.5043  15.5563 0014124 214.7976 145.2337 15.21199689  2710
2025-234C               
1 66055U 25234C   25309.95138914  .00007334  00000+0  32939-3 0  9992
2 66055  97.4567  15.4534 0014785 216.9641 143.0577 15.21360200  2715
2025-234D               
1 66056U 25234D   25309.94950939  .00023786  00000+0  10459-2 0  9992
2 66056  97.4544  15.4512 0014804 216.3504 143.6728 15.21785583  2709
2025-234E               
1 66057U 25234E   25309.96365072  .00405839  00000+0  12435-1 0  9991
2 66057  97.4853  15.6639 0014385 230.6855 129.3112 15.32000317  2724
STARLINK-35552          
1 66058U 25235A   25309.91668981  .00170652  00000+0  12946-2 0  9993
2 66058  53.1560 103.3359 0001301  36.9447  79.1949 15.71323293  3951
STARLINK-35560          
1 66059U 25235B   25309.91668981 -.01931709  00000+0 -22484-1 0  9992
2 66059  53.1598 103.3739 0001204  50.6704  47.2826 15.64274608  3953
STARLINK-35558          
1 66060U 25235C   25309.91668981 -.01939347  00000+0 -22579-1 0  9995
2 66060  53.1598 103.3685 0001225  51.5764  48.2900 15.64281046  3952
STARLINK-35566          
1 66061U 25235D   25309.91668981 -.01940674  00000+0 -22595-1 0  9999
2 66061  53.1599 103.3657 0001182  54.9665  46.8159 15.64282470  3954
STARLINK-35421          
1 66062U 25235E   25309.91668981 -.01933579  00000+0 -22506-1 0  9998
2 66062  53.1600 103.3610 0001171  55.4333  48.2676 15.64277565  3952
