CCSDS_OMM_VERS = 2.0
CREATION_DATE  = 
ORIGINATOR     = 

OBJECT_NAME    = QIANFAN-108
OBJECT_ID      = 2025-233T
CENTER_NAME    = EARTH
REF_FRAME      = TEME
TIME_SYSTEM    = UTC
MEAN_ELEMENT_THEORY = SGP/SGP4

EPOCH          = 2025-11-05T21:57:16.899552
MEAN_MOTION    = 14.26353866
ECCENTRICITY   = .00164835
INCLINATION    = 88.9951
RA_OF_ASC_NODE = 66.2689
ARG_OF_PERICENTER = 151.4931
MEAN_ANOMALY   = 208.7168

EPHEMERIS_TYPE = 0
CLASSIFICATION_TYPE = U
NORAD_CAT_ID   = 66050
ELEMENT_SET_NO = 999
REV_AT_EPOCH   = 279
BSTAR          = .2994279E-3
MEAN_MOTION_DOT = .734E-5
MEAN_MOTION_DDOT = 0

CCSDS_OMM_VERS = 2.0
CREATION_DATE  = 
ORIGINATOR     = 

OBJECT_NAME    = CZ-6A R/B
OBJECT_ID      = 2025-233U
CENTER_NAME    = EARTH
REF_FRAME      = TEME
TIME_SYSTEM    = UTC
MEAN_ELEMENT_THEORY = SGP/SGP4

EPOCH          = 2025-11-05T22:01:39.221184
MEAN_MOTION    = 14.57013994
ECCENTRICITY   = .00857031
INCLINATION    = 89.0291
RA_OF_ASC_NODE = 66.1966
ARG_OF_PERICENTER = 52.8182
MEAN_ANOMALY   = 308.0813

EPHEMERIS_TYPE = 0
CLASSIFICATION_TYPE = U
NORAD_CAT_ID   = 66051
ELEMENT_SET_NO = 999
REV_AT_EPOCH   = 285
BSTAR          = .85206482E-4
MEAN_MOTION_DOT = .422E-5
MEAN_MOTION_DDOT = 0

CCSDS_OMM_VERS = 2.0
CREATION_DATE  = 
ORIGINATOR     = 

OBJECT_NAME    = 2025-234A
OBJECT_ID      = 2025-234A
CENTER_NAME    = EARTH
REF_FRAME      = TEME
TIME_SYSTEM    = UTC
MEAN_ELEMENT_THEORY = SGP/SGP4

EPOCH          = 2025-11-05T22:39:06.251904
MEAN_MOTION    = 15.22458556
ECCENTRICITY   = .0014561
INCLINATION    = 97.4615
RA_OF_ASC_NODE = 15.4744
ARG_OF_PERICENTER = 223.2011
MEAN_ANOMALY   = 136.8084

EPHEMERIS_TYPE = 0
CLASSIFICATION_TYPE = U
NORAD_CAT_ID   = 66053
ELEMENT_SET_NO = 999
REV_AT_EPOCH   = 271
BSTAR          = .14791473E-2
MEAN_MOTION_DOT = .34386E-3
MEAN_MOTION_DDOT = 0

CCSDS_OMM_VERS = 2.0
CREATION_DATE  = 
ORIGINATOR     = 

OBJECT_NAME    = 2025-234B
OBJECT_ID      = 2025-234B
CENTER_NAME    = EARTH
REF_FRAME      = TEME
TIME_SYSTEM    = UTC
MEAN_ELEMENT_THEORY = SGP/SGP4

EPOCH          = 2025-11-05T22:51:59.305536
MEAN_MOTION    = 15.21199689
ECCENTRICITY   = .00141246
INCLINATION    = 97.5043
RA_OF_ASC_NODE = 15.5563
ARG_OF_PERICENTER = 214.7976
MEAN_ANOMALY   = 145.2337

EPHEMERIS_TYPE = 0
CLASSIFICATION_TYPE = U
NORAD_CAT_ID   = 66054
ELEMENT_SET_NO = 999
REV_AT_EPOCH   = 271
BSTAR          = .37642734E-3
MEAN_MOTION_DOT = .835E-4
MEAN_MOTION_DDOT = 0

CCSDS_OMM_VERS = 2.0
CREATION_DATE  = 
ORIGINATOR     = 

OBJECT_NAME    = 2025-234C
OBJECT_ID      = 2025-234C
CENTER_NAME    = EARTH
REF_FRAME      = TEME
TIME_SYSTEM    = UTC
MEAN_ELEMENT_THEORY = SGP/SGP4

EPOCH          = 2025-11-05T22:50:00.021696
MEAN_MOTION    = 15.21360200
ECCENTRICITY   = .00147851
INCLINATION    = 97.4567
RA_OF_ASC_NODE = 15.4534
ARG_OF_PERICENTER = 216.9641
MEAN_ANOMALY   = 143.0577

EPHEMERIS_TYPE = 0
CLASSIFICATION_TYPE = U
NORAD_CAT_ID   = 66055
ELEMENT_SET_NO = 999
REV_AT_EPOCH   = 271
BSTAR          = .32939323E-3
MEAN_MOTION_DOT = .7334E-4
MEAN_MOTION_DDOT = 0

CCSDS_OMM_VERS = 2.0
CREATION_DATE  = 
ORIGINATOR     = 

OBJECT_NAME    = 2025-234D
OBJECT_ID      = 2025-234D
CENTER_NAME    = EARTH
REF_FRAME      = TEME
TIME_SYSTEM    = UTC
MEAN_ELEMENT_THEORY = SGP/SGP4

EPOCH          = 2025-11-05T22:47:17.611296
MEAN_MOTION    = 15.21785583
ECCENTRICITY   = .00148046
INCLINATION    = 97.4544
RA_OF_ASC_NODE = 15.4512
ARG_OF_PERICENTER = 216.3504
MEAN_ANOMALY   = 143.6728

EPHEMERIS_TYPE = 0
CLASSIFICATION_TYPE = U
NORAD_CAT_ID   = 66056
ELEMENT_SET_NO = 999
REV_AT_EPOCH   = 270
BSTAR          = .1045919E-2
MEAN_MOTION_DOT = .23786E-3
MEAN_MOTION_DDOT = 0

CCSDS_OMM_VERS = 2.0
CREATION_DATE  = 
ORIGINATOR     = 

OBJECT_NAME    = 2025-234E
OBJECT_ID      = 2025-234E
CENTER_NAME    = EARTH
REF_FRAME      = TEME
TIME_SYSTEM    = UTC
MEAN_ELEMENT_THEORY = SGP/SGP4

EPOCH          = 2025-11-05T23:07:39.422208
MEAN_MOTION    = 15.32000317
ECCENTRICITY   = .0014385
INCLINATION    = 97.4853
RA_OF_ASC_NODE = 15.6639
ARG_OF_PERICENTER = 230.6855
MEAN_ANOMALY   = 129.3112

EPHEMERIS_TYPE = 0
CLASSIFICATION_TYPE = U
NORAD_CAT_ID   = 66057
ELEMENT_SET_NO = 999
REV_AT_EPOCH   = 272
BSTAR          = .12435359E-1
MEAN_MOTION_DOT = .405839E-2
MEAN_MOTION_DDOT = 0

CCSDS_OMM_VERS = 2.0
CREATION_DATE  = 
ORIGINATOR     = 

OBJECT_NAME    = STARLINK-35552
OBJECT_ID      = 2025-235A
CENTER_NAME    = EARTH
REF_FRAME      = TEME
TIME_SYSTEM    = UTC
MEAN_ELEMENT_THEORY = SGP/SGP4

EPOCH          = 2025-11-05T22:00:01.999584
MEAN_MOTION    = 15.71323293
ECCENTRICITY   = .00013016
INCLINATION    = 53.1560
RA_OF_ASC_NODE = 103.3359
ARG_OF_PERICENTER = 36.9447
MEAN_ANOMALY   = 79.1949

EPHEMERIS_TYPE = 0
CLASSIFICATION_TYPE = U
NORAD_CAT_ID   = 66058
ELEMENT_SET_NO = 999
REV_AT_EPOCH   = 395
BSTAR          = .1294602E-2
MEAN_MOTION_DOT = .170652E-2
MEAN_MOTION_DDOT = 0

CCSDS_OMM_VERS = 2.0
CREATION_DATE  = 
ORIGINATOR     = 

OBJECT_NAME    = STARLINK-35560
OBJECT_ID      = 2025-235B
CENTER_NAME    = EARTH
REF_FRAME      = TEME
TIME_SYSTEM    = UTC
MEAN_ELEMENT_THEORY = SGP/SGP4

EPOCH          = 2025-11-05T22:00:01.999584
MEAN_MOTION    = 15.64274608
ECCENTRICITY   = .00012044
INCLINATION    = 53.1598
RA_OF_ASC_NODE = 103.3739
ARG_OF_PERICENTER = 50.6704
MEAN_ANOMALY   = 47.2826

EPHEMERIS_TYPE = 0
CLASSIFICATION_TYPE = U
NORAD_CAT_ID   = 66059
ELEMENT_SET_NO = 999
REV_AT_EPOCH   = 395
BSTAR          = -.22483959E-1
MEAN_MOTION_DOT = -.1931709E-1
MEAN_MOTION_DDOT = 0

CCSDS_OMM_VERS = 2.0
CREATION_DATE  = 
ORIGINATOR     = 

OBJECT_NAME    = STARLINK-35558
OBJECT_ID      = 2025-235C
CENTER_NAME    = EARTH
REF_FRAME      = TEME
TIME_SYSTEM    = UTC
MEAN_ELEMENT_THEORY = SGP/SGP4

EPOCH          = 2025-11-05T22:00:01.999584
MEAN_MOTION    = 15.64281046
ECCENTRICITY   = .00012254
INCLINATION    = 53.1598
RA_OF_ASC_NODE = 103.3685
ARG_OF_PERICENTER = 51.5764
MEAN_ANOMALY   = 48.2900

EPHEMERIS_TYPE = 0
CLASSIFICATION_TYPE = U
NORAD_CAT_ID   = 66060
ELEMENT_SET_NO = 999
REV_AT_EPOCH   = 395
BSTAR          = -.22578708E-1
MEAN_MOTION_DOT = -.1939347E-1
MEAN_MOTION_DDOT = 0

CCSDS_OMM_VERS = 2.0
CREATION_DATE  = 
ORIGINATOR     = 

OBJECT_NAME    = STARLINK-35566
OBJECT_ID      = 2025-235D
CENTER_NAME    = EARTH
REF_FRAME      = TEME
TIME_SYSTEM    = UTC
MEAN_ELEMENT_THEORY = SGP/SGP4

EPOCH          = 2025-11-05T22:00:01.999584
MEAN_MOTION    = 15.64282470
ECCENTRICITY   = .00011829
INCLINATION    = 53.1599
RA_OF_ASC_NODE = 103.3657
ARG_OF_PERICENTER = 54.9665
MEAN_ANOMALY   = 46.8159

EPHEMERIS_TYPE = 0
CLASSIFICATION_TYPE = U
NORAD_CAT_ID   = 66061
ELEMENT_SET_NO = 999
REV_AT_EPOCH   = 395
BSTAR          = -.22595327E-1
MEAN_MOTION_DOT = -.1940674E-1
MEAN_MOTION_DDOT = 0

CCSDS_OMM_VERS = 2.0
CREATION_DATE  = 
ORIGINATOR     = 

OBJECT_NAME    = STARLINK-35421
OBJECT_ID      = 2025-235E
CENTER_NAME    = EARTH
REF_FRAME      = TEME
TIME_SYSTEM    = UTC
MEAN_ELEMENT_THEORY = SGP/SGP4

EPOCH          = 2025-11-05T22:00:01.999584
MEAN_MOTION    = 15.64277565
ECCENTRICITY   = .00011717
INCLINATION    = 53.1600
RA_OF_ASC_NODE = 103.3610
ARG_OF_PERICENTER = 55.4333
MEAN_ANOMALY   = 48.2676

EPHEMERIS_TYPE = 0
CLASSIFICATION_TYPE = U
NORAD_CAT_ID   = 66062
ELEMENT_SET_NO = 999
REV_AT_EPOCH   = 395
BSTAR          = -.22506254E-1
MEAN_MOTION_DOT = -.1933579E-1
MEAN_MOTION_DDOT = 0

